[{"OBJECT_NAME":"FLOCK 4G-17","OBJECT_ID":"2025-009CA","EPOCH":"2026-03-09T22:51:51.984864","MEAN_MOTION":15.27385439,"ECCENTRICITY":0.00036407,"INCLINATION":97.3966,"RA_OF_ASC_NODE":151.0229,"ARG_OF_PERICENTER":339.6132,"MEAN_ANOMALY":20.4962,"EPHEMERIS_TYPE":0,"CLASSIFICATION_TYPE":"U","NORAD_CAT_ID":62681,"ELEMENT_SET_NO":999,"REV_AT_EPOCH":12139,"BSTAR":0.00053710713,"MEAN_MOTION_DOT":0.00014342,"MEAN_MOTION_DDOT":0},{"OBJECT_NAME":"STARLINK-35405","OBJECT_ID":"2025-259U","EPOCH":"2026-03-09T23:11:39.666048","MEAN_MOTION":15.27602598,"ECCENTRICITY":0.00023723,"INCLINATION":42.9999,"RA_OF_ASC_NODE":272.7787,"ARG_OF_PERICENTER":241.8865,"MEAN_ANOMALY":118.1747,"EPHEMERIS_TYPE":0,"CLASSIFICATION_TYPE":"U","NORAD_CAT_ID":66440,"ELEMENT_SET_NO":999,"REV_AT_EPOCH":1953,"BSTAR":0.00060263064,"MEAN_MOTION_DOT":0.0001637,"MEAN_MOTION_DDOT":0}]
